STARLINK-1277
1 45369U 20019K   26061.07643126  .00083926  00000+0  16075-2 0  9991
2 45369  53.0527 189.0404 0001922 356.9243   3.1751 15.47336725328758
